satname,norad_id,inclination_deg,eccentricity,mean_motion_rev_per_day,perigee_km,apogee_km,l1,l2
STARLINK-1142,45093,53.0249,0.0008856,15.82764869,316.6915316462637,328.5599225885335,1 45093U 20006BB  25340.66670139  .00556944  00000+0  24218-2 0  9992,2 45093  53.0249 220.8898 0008856 172.4990 139.6328 15.82764869  5959
STARLINK-1152,45096,53.0465,0.0004826,15.27599695,479.6789428085867,486.30130270747213,1 45096U 20006BE  25340.55261225  .00017548  00000+0  65279-3 0  9990,2 45096  53.0465 282.0040 0004826  18.0432 342.0736 15.27599695323307
STARLINK-1184,45098,53.055,0.0001634,15.0640009,546.0796801919578,548.342884010548,1 45098U 20006BG  25340.62946170  .00001377  00000+0  11132-3 0  9991,2 45098  53.0550 304.3819 0001634  82.7816 277.3359 15.06400090322996
STARLINK-1193,45100,53.0548,0.0001141,15.06410285,546.3898574001205,547.9702147477519,1 45100U 20006BJ  25340.62576997  .00008834  00000+0  61105-3 0  9991,2 45100  53.0548 304.3979 0001141  83.2165 276.8954 15.06410285322992
STARLINK-1143,45179,53.0522,0.0004428,15.45015638,428.3168904344502,434.3473562900999,1 45179U 20012B   25340.59473904  .00094644  00000+0  19589-2 0  9996,2 45179  53.0522  58.8887 0004428 166.7235 193.3888 15.45015638321450
STARLINK-1202,45183,53.0549,0.0001748,15.06385734,546.0447229478486,548.4658400894668,1 45183U 20012F   25340.62208963  .00000709  00000+0  66530-4 0  9995,2 45183  53.0549 104.4174 0001748  66.0992 294.0180 15.06385734320812
STARLINK-1216,45185,53.0551,0.0001325,15.06417037,546.2417407137964,548.0769442445535,1 45185U 20012H   25340.61470333 -.00000887  00000+0 -40646-4 0  9997,2 45185  53.0551 104.4479 0001325  92.0855 268.0286 15.06417037320756
STARLINK-1225,45187,53.0551,0.0001139,15.06378523,546.4885779339029,548.0661873302652,1 45187U 20012K   25340.63314505 -.00001871  00000+0 -10679-3 0  9995,2 45187  53.0551 104.3646 0001139  88.4574 271.6546 15.06378523320804
STARLINK-1230,45189,53.0546,0.0001282,15.06392947,546.3453419954358,548.1210069081653,1 45189U 20012M   25340.63682265  .00000032  00000+0  21049-4 0  9998,2 45189  53.0546 104.3514 0001282  86.4731 273.6405 15.06392947318030
STARLINK-1234,45190,53.052,0.0005489,15.4196992,436.5533011529842,444.03857683341175,1 45190U 20012N   25339.94035397  .00028407  00000+0  66371-3 0  9992,2 45190  53.0520  56.3759 0005489 329.9287  30.1401 15.41969920321323
STARLINK-1269,45197,53.0548,0.0001338,15.06380506,546.3446852537445,548.1979245161319,1 45197U 20012V   25340.64788268 -.00000696  00000+0 -27884-4 0  9999,2 45197  53.0548 104.3005 0001338  98.6207 261.4934 15.06380506320786
STARLINK-1154,45198,53.058,0.0001259,15.06394335,546.3570168324004,548.1008239711573,1 45198U 20012W   25340.57232012  .00001024  00000+0  87619-4 0  9999,2 45198  53.0580  84.6382 0001259  72.6553 287.4574 15.06394335321020
STARLINK-1199,45201,53.0564,0.0001576,15.06399424,546.1218880849301,548.3047585068334,1 45201U 20012Z   25340.58337815  .00000138  00000+0  28160-4 0  9993,2 45201  53.0564  84.5899 0001576  95.6927 264.4242 15.06399424321088
STARLINK-1209,45206,53.0535,0.0006022,15.35433643,455.5150540494815,463.75046394721994,1 45206U 20012AE  25340.59923654  .00020307  00000+0  59059-3 0  9991,2 45206  53.0535  55.4714 0006022 337.8315  22.2425 15.35433643320544
STARLINK-1210,45207,53.022,0.0003281,15.65825585,368.6510846198735,373.07978001595984,1 45207U 20012AF  25340.09759494  .00084283  00000+0  81192-3 0  9992,2 45207  53.0220  12.6108 0003281 150.9257 209.1941 15.65825585322051
STARLINK-1231,45212,53.0512,0.0004207,15.14750312,518.8339187019883,524.6394724294387,1 45212U 20012AL  25340.56184178  .00010822  00000+0  59219-3 0  9994,2 45212  53.0512  81.2296 0004207 147.1214 213.0041 15.14750312321087
STARLINK-1271,45217,53.0557,0.0001316,15.06413216,546.2596825580749,548.0824236376502,1 45217U 20012AR  25340.56862508 -.00001016  00000+0 -49287-4 0  9991,2 45217  53.0557  84.6546 0001316  88.2484 271.8656 15.06413216321082
STARLINK-1191,45222,53.0542,0.0001445,15.06395613,546.2242886845597,548.225718303569,1 45222U 20012AW  25340.64420167  .00000184  00000+0  31250-4 0  9991,2 45222  53.0542  64.3156 0001445  92.0158 268.0996 15.06395613321375
STARLINK-1212,45223,53.0546,0.000128,15.06379462,546.3880519928371,548.160957338031,1 45223U 20012AX  25340.53002766  .00000730  00000+0  67960-4 0  9995,2 45223  53.0546  65.4847 0001280  97.9574 262.1560 15.06379462321356
STARLINK-1215,45225,53.0559,0.0001433,15.06349643,546.3734746246173,548.3583237555249,1 45225U 20012AZ  25340.61840938 -.00008561  00000+0 -55726-3 0  9995,2 45225  53.0559  64.4282 0001433 105.9373 254.1774 15.06349643321324
STARLINK-1221,45227,53.0694,0.0005782,15.38294595,447.20341715433096,455.100807083586,1 45227U 20012BB  25340.33251097  .00038396  00000+0  10072-2 0  9999,2 45227  53.0694 350.7504 0005782  73.5660 286.5978 15.38294595322320
STARLINK-1222,45228,53.0553,7.7e-05,15.10988044,532.6532854581646,533.717629116587,1 45228U 20012BC  25340.62137465 -.00005886  00000+0 -33143-3 0  9999,2 45228  53.0553  64.1042 0000770  74.1564 285.9512 15.10988044321268
STARLINK-1226,45229,53.0562,0.0001347,15.06396473,546.2895217995574,548.1552136132177,1 45229U 20012BD  25340.61470812  .00008558  00000+0  59279-3 0  9990,2 45229  53.0562  64.4491 0001347  91.8146 268.2997 15.06396473321268
STARLINK-1227,45230,53.0548,0.000131,15.06391201,546.3313015433869,548.14574993113,1 45230U 20012BE  25340.54467723  .00000807  00000+0  73051-4 0  9995,2 45230  53.0548  64.7620 0001310  88.0652 272.0487 15.06391201321374
STARLINK-1246,45235,53.0544,0.0001252,15.06398096,546.35033906014,548.0844478002564,1 45235U 20012BK  25340.62576314  .00002597  00000+0  19316-3 0  9997,2 45235  53.0544 104.3979 0001252  81.8979 278.2152 15.06398096320837
STARLINK-1270,45237,53.0546,0.000146,15.06388769,546.2348736345621,548.2570854645901,1 45237U 20012BM  25340.62946020  .00001071  00000+0  90778-4 0  9992,2 45237  53.0546  64.3824 0001460  91.5655 268.5502 15.06388769321372
STARLINK-1279,45360,53.049,0.0009499,15.39718668,440.457419742791,453.42370209302226,1 45360U 20019A   25340.60435482  .00024852  00000+0  62640-3 0  9997,2 45360  53.0490 184.1141 0009499 127.0747 233.1126 15.39718668316259
STARLINK-1301,45361,53.0487,0.0008966,15.42519759,432.5635785727536,444.7874868063727,1 45361U 20019B   25340.63573198  .00028064  00000+0  64342-3 0  9998,2 45361  53.0487 193.0144 0008966 120.8506 239.3382 15.42519759316144
STARLINK-1306,45362,53.0382,0.0003338,15.8448958,315.52724985789337,319.99743225798375,1 45362U 20019C   25340.66670139  .00198181  00000+0  83103-3 0  9999,2 45362  53.0382 173.3119 0003338  91.5690 318.6451 15.84489580  5987
STARLINK-1262,45366,53.0539,0.0001461,15.06400615,546.1978799035614,548.2214662014276,1 45366U 20019G   25340.40829695 -.00000518  00000+0 -15892-4 0  9997,2 45366  53.0539 225.3727 0001461  97.1756 262.9399 15.06400615315676
STARLINK-1273,45367,53.0528,0.0001639,15.06404155,546.0637609495079,548.3338860324475,1 45367U 20019H   25340.09868004  .00003871  00000+0  27858-3 0  9997,2 45367  53.0528 226.7614 0001639  83.2015 276.9160 15.06404155315625
STARLINK-1276,45368,53.055,0.0001536,15.06395588,546.1613445003304,548.2888157313419,1 45368U 20019J   25340.13554307 -.00001694  00000+0 -94860-4 0  9992,2 45368  53.0550 226.5993 0001536  85.0159 275.1005 15.06395588315633
STARLINK-1277,45369,53.0529,0.0001393,15.06398279,546.2521307715533,548.1815343493054,1 45369U 20019K   25340.39363137  .00001210  00000+0  10013-3 0  9999,2 45369  53.0529 226.0658 0001393  76.2617 283.8527 15.06398279315663
STARLINK-1281,45370,53.0558,0.0001457,15.06392617,546.2251592805678,548.2432124441293,1 45370U 20019L   25340.38987087  .00002175  00000+0  16491-3 0  9993,2 45370  53.0558 225.4564 0001457  95.5250 264.5906 15.06392617315672
STARLINK-1300,45374,53.0531,0.0001792,15.06385808,546.0140244595414,548.4960849719528,1 45374U 20019Q   25340.41199567  .00008785  00000+0  60814-3 0  9990,2 45374  53.0531 225.3563 0001792 102.0050 258.1140 15.06385808315672
STARLINK-1302,45375,53.0527,0.000132,15.06409358,546.2687349407652,548.0970193883377,1 45375U 20019R   25340.09499829  .00004621  00000+0  32884-3 0  9990,2 45375  53.0527 226.7815 0001320  85.0573 275.0567 15.06409358315623
STARLINK-1304,45376,53.0543,0.000124,15.06412815,546.3135437364317,548.0310204383904,1 45376U 20019S   25340.37880390  .00015262  00000+0  10409-2 0  9990,2 45376  53.0543 225.5062 0001240 105.6276 254.4850 15.06412815315665
STARLINK-1305,45377,53.0519,0.0008593,15.36231218,451.3922199899662,463.13954338243184,1 45377U 20019T   25340.65662325  .00021866  00000+0  61869-3 0  9992,2 45377  53.0519 214.9856 0008593 115.6892 244.4998 15.36231218315846
STARLINK-1319,45379,53.0517,0.0007294,15.41120809,437.82501781622705,447.77540101732484,1 45379U 20019V   25340.37320046  .00027854  00000+0  66937-3 0  9998,2 45379  53.0517 217.5412 0007294 120.4928 239.6797 15.41120809315789
STARLINK-1266,45383,53.0534,0.0001586,15.06401231,546.1094254202253,548.30614478606,1 45383U 20019Z   25340.59812302  .00002558  00000+0  19055-3 0  9991,2 45383  53.0534 204.5280 0001586 107.8981 252.2181 15.06401231315979
STARLINK-1267,45384,53.0531,0.0001509,15.06413789,546.124268241414,548.2143256818363,1 45384U 20019AA  25340.64979940  .00004730  00000+0  33607-3 0  9993,2 45384  53.0531 204.9468 0001509  88.9176 271.1986 15.06413789315973
STARLINK-1272,45386,53.0509,0.0009053,15.39332422,441.90242617992135,454.2619786678315,1 45386U 20019AC  25340.59304745  .00023948  00000+0  61181-3 0  9994,2 45386  53.0509 194.7281 0009053 126.0551 234.1292 15.39332422316118
STARLINK-1274,45387,53.034,0.0005643,15.33155841,462.54126915204415,470.26601772222693,1 45387U 20019AD  25339.96776074  .00017780  00000+0  55729-3 0  9990,2 45387  53.0340 186.3717 0005643  89.7194 270.4453 15.33155841316172
